[{
  "name": "Agapé",
  "city": "Paris 17",
  "zipcode": "75017",
  "star": 1,
  "id": "1923"
}, {
  "name": "Le Jardin des Remparts",
  "city": "Beaune",
  "zipcode": "21200",
  "star": 1,
  "id": "4988"
}, {
  "name": "Le Moulin du Roc",
  "city": "Champagnac-de-Belair",
  "zipcode": "24530",
  "star": 1,
  "id": "7133"
}, {
  "name": "Le Cloître",
  "city": "Mane",
  "zipcode": "04300",
  "star": 1,
  "id": "11050"
}, {
  "name": "Ithurria",
  "city": "Ainhoa",
  "zipcode": "64250",
  "star": 1,
  "id": "378"
}, {
  "name": "Initial",
  "city": "Caen",
  "zipcode": "14000",
  "star": 1,
  "id": "27058"
}, {
  "name": "Maison Clovis",
  "city": "Lyon",
  "zipcode": "69006",
  "star": 1,
  "id": "324443"
}, {
  "name": "JY'S",
  "city": "Colmar",
  "zipcode": "68000",
  "star": 2,
  "id": "5603"
}, {
  "name": "La Tour des Vents",
  "city": "Monbazillac",
  "zipcode": "24240",
  "star": 1,
  "id": "75533"
}, {
  "name": "Ivan Vautier",
  "city": "Caen",
  "zipcode": "14000",
  "star": 1,
  "id": "26460"
}, {
  "name": "L'Essentiel",
  "city": "DEAUVILLE",
  "zipcode": "14800",
  "star": 1,
  "id": "21632"
}, {
  "name": "L'Almandin",
  "city": "Saint-Cyprien",
  "zipcode": "66750",
  "star": 1,
  "id": "566"
}, {
  "name": "Hostellerie de l'Abbaye de la Celle",
  "city": "La Celle",
  "zipcode": "83170",
  "star": 1,
  "id": "25901"
}, {
  "name": "Restaurant du Palais Royal",
  "city": "Paris 01",
  "zipcode": "75001",
  "star": 1,
  "id": "21741"
}, {
  "name": "L'Auberge de la Pomme",
  "city": "Les Damps",
  "zipcode": "27340",
  "star": 1,
  "id": "32584"
}, {
  "name": "Loiseau rive Gauche",
  "city": "Paris 07",
  "zipcode": "75007",
  "star": 1,
  "id": "25"
}, {
  "name": "Alain Llorca",
  "city": "La Colle-sur-Loup",
  "zipcode": "06480",
  "star": 1,
  "id": "277471"
}, {
  "name": "Paloma",
  "city": "Mougins",
  "zipcode": "06250",
  "star": 2,
  "id": "38822"
}, {
  "name": "Le Clos des Sens",
  "city": "Annecy",
  "zipcode": "74940",
  "star": 2,
  "id": "7130"
}, {
  "name": "La Côte Saint-Jacques",
  "city": "Joigny",
  "zipcode": "89300",
  "star": 2,
  "id": "12792"
}, {
  "name": "Le Clarence",
  "city": "Paris 08",
  "zipcode": "75008",
  "star": 2,
  "id": "74933"
}, {
  "name": "La Passagère",
  "city": "Juan-les-Pins",
  "zipcode": "06160",
  "star": 1,
  "id": "203823"
}, {
  "name": "Le Castellaras",
  "city": "Fayence",
  "zipcode": "83440",
  "star": 1,
  "id": "204609"
}, {
  "name": "L'Orangerie du Château",
  "city": "Blois",
  "zipcode": "41000",
  "star": 1,
  "id": "2728"
}, {
  "name": "La Licorne Royale",
  "city": "Lyons-la-Forêt",
  "zipcode": "27480",
  "star": 1,
  "id": "5632"
}, {
  "name": "Domaine de Clairefontaine",
  "city": "Chonas-l'Amballan",
  "zipcode": "38121",
  "star": 1,
  "id": "22878"
}, {
  "name": "1912",
  "city": "Trouville-sur-Mer",
  "zipcode": "14360",
  "star": 1,
  "id": "60777"
}, {
  "name": "Les Hautes Roches",
  "city": "Rochecorbon",
  "zipcode": "37210",
  "star": 1,
  "id": "2819"
}, {
  "name": "Auberge du Cheval Blanc",
  "city": "Lembach",
  "zipcode": "67510",
  "star": 2,
  "id": "2310"
}, {
  "name": "Maison Kieny",
  "city": "Riedisheim",
  "zipcode": "68400",
  "star": 1,
  "id": "2971"
}, {
  "name": "L'Arcane",
  "city": "Paris",
  "zipcode": "75018",
  "star": 1,
  "id": "214579"
}, {
  "name": "Auberge des Templiers",
  "city": "Les Bézards",
  "zipcode": "45290",
  "star": 1,
  "id": "2714"
}, {
  "name": "Domaine d'Auriac",
  "city": "Carcassonne",
  "zipcode": "11000",
  "star": 1,
  "id": "3018"
}, {
  "name": "Chez Michèle",
  "city": "Languimberg",
  "zipcode": "57810",
  "star": 1,
  "id": "16363"
}, {
  "name": "Le Quincangrogne",
  "city": "Dampmart",
  "zipcode": "77400",
  "star": 1,
  "id": "78533"
}, {
  "name": "Le Carrousel",
  "city": "MARINGUES",
  "zipcode": "63350",
  "star": 1,
  "id": "9759"
}, {
  "name": "Le Moulin de l'Abbaye",
  "city": "BRANTOME",
  "zipcode": "24310",
  "star": 1,
  "id": "26352"
}, {
  "name": "L'Odas",
  "city": "Rouen",
  "zipcode": "76000",
  "star": 1,
  "id": "212971"
}, {
  "name": "Le Magasin aux Vivres",
  "city": "Metz",
  "zipcode": "57000",
  "star": 1,
  "id": "5109"
}, {
  "name": "Julien Binz",
  "city": "Ammerschwihr",
  "zipcode": "68770",
  "star": 1,
  "id": "206163"
}, {
  "name": "Auberge de la Tour",
  "city": "MARCOLES",
  "zipcode": "15220",
  "star": 1,
  "id": "23255"
}, {
  "name": "Flaveur",
  "city": "Nice",
  "zipcode": "06000",
  "star": 2,
  "id": "38155"
}, {
  "name": "Les Rosiers",
  "city": "Biarritz",
  "zipcode": "64200",
  "star": 1,
  "id": "6710"
}, {
  "name": "Le Relais Bernard Loiseau",
  "city": "Saulieu",
  "zipcode": "21210",
  "star": 2,
  "id": "3303"
}, {
  "name": "Le Grand Cerf",
  "city": "Montchenot",
  "zipcode": "51500",
  "star": 1,
  "id": "5935"
}, {
  "name": "La Scène Thélème",
  "city": "PARIS",
  "zipcode": "75017",
  "star": 1,
  "id": "269585"
}, {
  "name": "Auberge du Bon Laboureur",
  "city": "Chenonceaux",
  "zipcode": "37150",
  "star": 1,
  "id": "2934"
}, {
  "name": "Loiseau des Vignes",
  "city": "Beaune",
  "zipcode": "21200",
  "star": 1,
  "id": "3304"
}, {
  "name": "Dominique Bouchet",
  "city": "Paris",
  "zipcode": "75008",
  "star": 1,
  "id": "310829"
}, {
  "name": "La Palme d'Or",
  "city": "Cannes",
  "zipcode": "06400",
  "star": 2,
  "id": "287357"
}, {
  "name": "Lasserre",
  "city": "Paris 08",
  "zipcode": "75008",
  "star": 1,
  "id": "250"
}, {
  "name": "L'Auberge Basque",
  "city": "Saint-Pée-sur-Nivelle",
  "zipcode": "64310",
  "star": 1,
  "id": "5305"
}, {
  "name": "Le Refuge des Gourmets",
  "city": "Machilly",
  "zipcode": "74140",
  "star": 1,
  "id": "10332"
}, {
  "name": "La Bastide de Moustiers",
  "city": "Moustiers-Sainte-Marie",
  "zipcode": "04360",
  "star": 1,
  "id": "57531"
}, {
  "name": "Helen",
  "city": "Paris",
  "zipcode": "75008",
  "star": 1,
  "id": "23454"
}, {
  "name": "Loiseau des Ducs",
  "city": "Dijon",
  "zipcode": "21000",
  "star": 1,
  "id": "29826"
}, {
  "name": "Pierre Orsi",
  "city": "Lyon 06",
  "zipcode": "69006",
  "star": 1,
  "id": "12900"
}, {
  "name": "Le Relais des Moines",
  "city": "Les Arcs",
  "zipcode": "83460",
  "star": 1,
  "id": "132"
}, {
  "name": "Le Pressoir",
  "city": "Saint-Avé",
  "zipcode": "56890",
  "star": 1,
  "id": "18188"
}, {
  "name": "Mavrommatis",
  "city": "Paris 05",
  "zipcode": "75005",
  "star": 1,
  "id": "5727"
}, {
  "name": "Ed.Em",
  "city": "Chassagne-Montrachet",
  "zipcode": "21190",
  "star": 1,
  "id": "209193"
}, {
  "name": "La Renaissance",
  "city": "Argentan",
  "zipcode": "61200",
  "star": 1,
  "id": "2970"
}, {
  "name": "Le Musigny",
  "city": "Valenciennes",
  "zipcode": "59300",
  "star": 1,
  "id": "32118"
}, {
  "name": "Ô Saveurs",
  "city": "ROUFFIAC-TOLOSAN",
  "zipcode": "31180",
  "star": 1,
  "id": "8719"
}, {
  "name": "Domaine des Séquoias",
  "city": "Ruy",
  "zipcode": "38300",
  "star": 1,
  "id": "1009"
}, {
  "name": "Château de Mercuès",
  "city": "Mercuès",
  "zipcode": "46090",
  "star": 1,
  "id": "13311"
}, {
  "name": "Frédéric Simonin",
  "city": "Paris",
  "zipcode": "75017",
  "star": 1,
  "id": "23087"
}, {
  "name": "L'Arôme",
  "city": "Paris 08",
  "zipcode": "75008",
  "star": 1,
  "id": "713"
}, {
  "name": "La Matelote",
  "city": "BOULOGNE-SUR-MER",
  "zipcode": "62200",
  "star": 1,
  "id": "327881"
}, {
  "name": "Auberge des Saints Pères",
  "city": "Aulnay-sous-Bois",
  "zipcode": "93600",
  "star": 1,
  "id": "4546"
}, {
  "name": "Gordon Ramsay au Trianon",
  "city": "Versailles",
  "zipcode": "78000",
  "star": 1,
  "id": "3131"
}, {
  "name": "Copenhague",
  "city": "PARIS",
  "zipcode": "75008",
  "star": 1,
  "id": "25985"
}, {
  "name": "Le Manoir du Lys",
  "city": "Bagnoles-de-l'Orne",
  "zipcode": "61140",
  "star": 1,
  "id": "2740"
}, {
  "name": "La Vague d'Or",
  "city": "Saint-Tropez",
  "zipcode": "83990",
  "star": 3,
  "id": "26660"
}, {
  "name": "Le Passe Temps",
  "city": "Lyon",
  "zipcode": "69006",
  "star": 1,
  "id": "323145"
}, {
  "name": "Maison Rostang",
  "city": "Paris",
  "zipcode": "75017",
  "star": 2,
  "id": "405"
}, {
  "name": "Ze Kitchen Galerie",
  "city": "Paris",
  "zipcode": "75006",
  "star": 1,
  "id": "269053"
}, {
  "name": "Nakatani",
  "city": "PARIS",
  "zipcode": "75007",
  "star": 1,
  "id": "60859"
}, {
  "name": "Le France",
  "city": "VILLERS-LE-LAC",
  "zipcode": "25130",
  "star": 1,
  "id": "221"
}, {
  "name": "Auberge au Boeuf",
  "city": "Sessenheim",
  "zipcode": "67770",
  "star": 1,
  "id": "44361"
}, {
  "name": "Le Prieuré",
  "city": "Villeneuve-lès-Avignon",
  "zipcode": "30400",
  "star": 1,
  "id": "689"
}, {
  "name": "La Table du Connétable",
  "city": "Chantilly",
  "zipcode": "60500",
  "star": 1,
  "id": "60775"
}, {
  "name": "Les Terrasses de Lyon",
  "city": "Lyon 05",
  "zipcode": "69005",
  "star": 1,
  "id": "4697"
}, {
  "name": "Ken Kawasaki",
  "city": "Paris",
  "zipcode": "75018",
  "star": 1,
  "id": "276169"
}, {
  "name": "L'Archeste",
  "city": "Paris",
  "zipcode": "75116",
  "star": 1,
  "id": "284489"
}, {
  "name": "Au Crocodile",
  "city": "STRASBOURG",
  "zipcode": "67000",
  "star": 1,
  "id": "71542"
}, {
  "name": "La Chassagnette",
  "city": "Arles",
  "zipcode": "13200",
  "star": 1,
  "id": "14529"
}, {
  "name": "Les Clefs d'Argent",
  "city": "Mont-de-Marsan",
  "zipcode": "40000",
  "star": 1,
  "id": "8933"
}, {
  "name": "Le Village",
  "city": "Marly-le-Roi",
  "zipcode": "78160",
  "star": 1,
  "id": "330375"
}, {
  "name": "La Table de l'Alpaga",
  "city": "Megève",
  "zipcode": "74120",
  "star": 1,
  "id": "291883"
}, {
  "name": "Le Mascaret",
  "city": "Blainville-sur-Mer",
  "zipcode": "50560",
  "star": 1,
  "id": "387"
}, {
  "name": "La Maison dans le Parc",
  "city": "Nancy",
  "zipcode": "54000",
  "star": 1,
  "id": "4294"
}, {
  "name": "La Marande",
  "city": "Montbellet",
  "zipcode": "71260",
  "star": 1,
  "id": "2889"
}, {
  "name": "La Table d'Eugène",
  "city": "Paris",
  "zipcode": "75018",
  "star": 1,
  "id": "36884"
}, {
  "name": "Maison Lameloise",
  "city": "Chagny",
  "zipcode": "71150",
  "star": 3,
  "id": "3552"
}, {
  "name": "Miraflores",
  "city": "Lyon",
  "zipcode": "69006",
  "star": 1,
  "id": "44919"
}, {
  "name": "Ar Men Du",
  "city": "Névez",
  "zipcode": "29920",
  "star": 1,
  "id": "4961"
}, {
  "name": "Le Vivier",
  "city": "L'Isle-sur-la-Sorgue",
  "zipcode": "84800",
  "star": 1,
  "id": "1086"
}, {
  "name": "Le Park 45",
  "city": "Cannes",
  "zipcode": "06400",
  "star": 1,
  "id": "8628"
}, {
  "name": "Prairial",
  "city": "Lyon",
  "zipcode": "69001",
  "star": 1,
  "id": "75043"
}, {
  "name": "Les Climats",
  "city": "Paris 07",
  "zipcode": "75007",
  "star": 1,
  "id": "30315"
}, {
  "name": "Le Bistro des Saveurs",
  "city": "Obernai",
  "zipcode": "67210",
  "star": 1,
  "id": "18939"
}, {
  "name": "Le Strasbourg",
  "city": "Bitche",
  "zipcode": "57230",
  "star": 1,
  "id": "10382"
}, {
  "name": "Château de Mirambeau",
  "city": "Mirambeau",
  "zipcode": "17150",
  "star": 1,
  "id": "5487"
}, {
  "name": "L'Écrin",
  "city": "Paris",
  "zipcode": "75008",
  "star": 1,
  "id": "326081"
}, {
  "name": "La Nouvelle Auberge",
  "city": "Wihr-au-Val",
  "zipcode": "68230",
  "star": 1,
  "id": "38024"
}, {
  "name": "La Grignotière",
  "city": "Raismes",
  "zipcode": "59590",
  "star": 1,
  "id": "43399"
}, {
  "name": "Jin",
  "city": "Paris",
  "zipcode": "75001",
  "star": 1,
  "id": "30379"
}, {
  "name": "Le Clair de la Plume",
  "city": "Grignan",
  "zipcode": "26230",
  "star": 1,
  "id": "18271"
}, {
  "name": "Astrance",
  "city": "Paris",
  "zipcode": "75016",
  "star": 3,
  "id": "344379"
}, {
  "name": "Logis de la Cadène",
  "city": "Saint Emilion",
  "zipcode": "33330",
  "star": 1,
  "id": "44000"
}, {
  "name": "Alcyone",
  "city": "MARSEILLE",
  "zipcode": "13002",
  "star": 1,
  "id": "31008"
}, {
  "name": "Le Vieux Logis",
  "city": "Trémolat",
  "zipcode": "24510",
  "star": 1,
  "id": "6018"
}, {
  "name": "La Table du Gourmet",
  "city": "Riquewihr",
  "zipcode": "68340",
  "star": 1,
  "id": "2975"
}, {
  "name": "Hostellerie de Plaisance",
  "city": "Saint-Emilion",
  "zipcode": "33330",
  "star": 2,
  "id": "4904"
}, {
  "name": "Alliance",
  "city": "Paris",
  "zipcode": "75005",
  "star": 1,
  "id": "77626"
}, {
  "name": "Christopher Coutanceau",
  "city": "La Rochelle",
  "zipcode": "17000",
  "star": 2,
  "id": "2998"
}, {
  "name": "Le Gambetta",
  "city": "Saumur",
  "zipcode": "49400",
  "star": 1,
  "id": "46885"
}, {
  "name": "La Promenade",
  "city": "Verfeil",
  "zipcode": "31590",
  "star": 1,
  "id": "42187"
}, {
  "name": "Le Puits du Trésor",
  "city": "Lastours",
  "zipcode": "11600",
  "star": 1,
  "id": "529"
}, {
  "name": "La Table du 11",
  "city": "Versailles",
  "zipcode": "78000",
  "star": 1,
  "id": "58408"
}, {
  "name": "Apicius",
  "city": "Paris",
  "zipcode": "75008",
  "star": 1,
  "id": "60418"
}, {
  "name": "Henri et Joseph",
  "city": "Lorient",
  "zipcode": "56100",
  "star": 1,
  "id": "8838"
}, {
  "name": "Le Pavillon",
  "city": "Le Touquet-Paris-Plage",
  "zipcode": "62520",
  "star": 1,
  "id": "306505"
}, {
  "name": "L'Aromate",
  "city": "Nice",
  "zipcode": "06000",
  "star": 1,
  "id": "38154"
}, {
  "name": "Palm Beach",
  "city": "Ajaccio",
  "zipcode": "20000",
  "star": 1,
  "id": "5756"
}, {
  "name": "Garopapilles",
  "city": "Bordeaux",
  "zipcode": "33000",
  "star": 1,
  "id": "276775"
}, {
  "name": "Divellec",
  "city": "Paris",
  "zipcode": "75007",
  "star": 1,
  "id": "272053"
}, {
  "name": "Septime",
  "city": "Paris",
  "zipcode": "75011",
  "star": 1,
  "id": "10889"
}, {
  "name": "Le Château de Sable",
  "city": "Porspoder",
  "zipcode": "29840",
  "star": 1,
  "id": "65607"
}, {
  "name": "Mon Plaisir",
  "city": "Chamesol",
  "zipcode": "25190",
  "star": 1,
  "id": "7876"
}, {
  "name": "Comice",
  "city": "Paris",
  "zipcode": "75016",
  "star": 1,
  "id": "337449"
}, {
  "name": "Restaurant H",
  "city": "Paris",
  "zipcode": "75004",
  "star": 1,
  "id": "209577"
}, {
  "name": "Le Chateaubriand",
  "city": "Paris",
  "zipcode": "75011",
  "star": 1,
  "id": "202436"
}]
